start=new Date('2023-02-19T00:00:00.000Z').valueOf();
sats=[{"PERIOD":"95.593","EPHEMERIS_TYPE":"0","RA_OF_ASC_NODE":"113.2778","OBJECT_TYPE":"PAYLOAD","ELEMENT_SET_NO":"999","TLE_LINE1":"1 45398U 20019AQ  23049.41718483  .00013876  00000-0  94885-3 0  9997","MEAN_MOTION_DOT":"0.00013876","MEAN_MOTION":"15.06389714","PERIAPSIS":"546.485","APOAPSIS":"548.005","TIME_SYSTEM":"UTC","REF_FRAME":"TEME","ARG_OF_PERICENTER":"97.8640","MEAN_MOTION_DDOT":"0.0000000000000","OBJECT_NAME":"STARLINK-1312","FILE":"3807124","INCLINATION":"53.0508","RCS_SIZE":"LARGE","TLE_LINE2":"2 45398  53.0508 113.2778 0001098  97.8640 262.2473 15.06389714161663","LAUNCH_DATE":"2020-03-18","NORAD_CAT_ID":"45398","OBJECT_ID":"2020-019AQ","SEMIMAJOR_AXIS":"6925.380","COUNTRY_CODE":"US","SITE":"AFETR","CENTER_NAME":"EARTH","REV_AT_EPOCH":"16166","CLASSIFICATION_TYPE":"U","MEAN_ELEMENT_THEORY":"SGP4","EPOCH":"2023-02-18T10:00:44.769312","ECCENTRICITY":"0.00010980","DECAY_DATE":null,"MEAN_ANOMALY":"262.2473","GP_ID":"225920633","BSTAR":"0.00094885000000"},{"TLE_LINE1":"1 45399U 20019AR  23049.85668897  .00014194  00000-0  96974-3 0  9994","ELEMENT_SET_NO":"999","OBJECT_TYPE":"PAYLOAD","RA_OF_ASC_NODE":"101.2947","EPHEMERIS_TYPE":"0","PERIOD":"95.592","PERIAPSIS":"546.350","MEAN_MOTION":"15.06404803","MEAN_MOTION_DOT":"0.00014194","MEAN_MOTION_DDOT":"0.0000000000000","OBJECT_NAME":"STARLINK-1255","ARG_OF_PERICENTER":"92.1299","REF_FRAME":"TEME","TIME_SYSTEM":"UTC","APOAPSIS":"548.047","RCS_SIZE":"LARGE","INCLINATION":"53.0544","FILE":"3808297","OBJECT_ID":"2020-019AR","NORAD_CAT_ID":"45399","TLE_LINE2":"2 45399  53.0544 101.2947 0001225  92.1299 267.9831 15.06404803161925","LAUNCH_DATE":"2020-03-18","SITE":"AFETR","COUNTRY_CODE":"US","SEMIMAJOR_AXIS":"6925.334","MEAN_ELEMENT_THEORY":"SGP4","CLASSIFICATION_TYPE":"U","CENTER_NAME":"EARTH","REV_AT_EPOCH":"16192","GP_ID":"225953113","MEAN_ANOMALY":"267.9831","BSTAR":"0.00096974000000","DECAY_DATE":null,"EPOCH":"2023-02-18T20:33:37.927008","ECCENTRICITY":"0.00012250"},{"RCS_SIZE":"LARGE","INCLINATION":"53.0541","FILE":"3807124","OBJECT_NAME":"STARLINK-1213","MEAN_MOTION_DDOT":"0.0000000000000","ARG_OF_PERICENTER":"83.2850","TIME_SYSTEM":"UTC","REF_FRAME":"TEME","APOAPSIS":"548.317","PERIAPSIS":"546.166","MEAN_MOTION":"15.06390889","MEAN_MOTION_DOT":"0.00012667","ELEMENT_SET_NO":"999","TLE_LINE1":"1 45400U 20019AS  23049.40700730  .00012667  00000-0  86793-3 0  9992","OBJECT_TYPE":"PAYLOAD","RA_OF_ASC_NODE":"103.3295","EPHEMERIS_TYPE":"0","PERIOD":"95.593","GP_ID":"225919633","BSTAR":"0.00086793000000","MEAN_ANOMALY":"276.8315","DECAY_DATE":null,"ECCENTRICITY":"0.00015530","EPOCH":"2023-02-18T09:46:05.430720","MEAN_ELEMENT_THEORY":"SGP4","CLASSIFICATION_TYPE":"U","CENTER_NAME":"EARTH","REV_AT_EPOCH":"16178","SITE":"AFETR","COUNTRY_CODE":"US","SEMIMAJOR_AXIS":"6925.376","OBJECT_ID":"2020-019AS","LAUNCH_DATE":"2020-03-18","TLE_LINE2":"2 45400  53.0541 103.3295 0001553  83.2850 276.8315 15.06390889161780","NORAD_CAT_ID":"45400"},{"GP_ID":"225953565","MEAN_ANOMALY":"271.0602","BSTAR":"0.00031766000000","DECAY_DATE":null,"ECCENTRICITY":"0.00012440","EPOCH":"2023-02-18T20:49:31.808064","MEAN_ELEMENT_THEORY":"SGP4","CLASSIFICATION_TYPE":"U","CENTER_NAME":"EARTH","REV_AT_EPOCH":"16192","SEMIMAJOR_AXIS":"6925.304","COUNTRY_CODE":"US","SITE":"AFETR","LAUNCH_DATE":"2020-03-18","TLE_LINE2":"2 45401  53.0524 101.2568 0001244  89.0530 271.0602 15.06414506161923","NORAD_CAT_ID":"45401","OBJECT_ID":"2020-019AT","INCLINATION":"53.0524","RCS_SIZE":"LARGE","FILE":"3808297","TIME_SYSTEM":"UTC","REF_FRAME":"TEME","MEAN_MOTION_DDOT":"0.0000000000000","OBJECT_NAME":"STARLINK-1256","ARG_OF_PERICENTER":"89.0530","APOAPSIS":"548.031","PERIAPSIS":"546.308","MEAN_MOTION":"15.06414506","MEAN_MOTION_DOT":"0.00004455","ELEMENT_SET_NO":"999","TLE_LINE1":"1 45401U 20019AT  23049.86772926  .00004455  00000-0  31766-3 0  9995","OBJECT_TYPE":"PAYLOAD","EPHEMERIS_TYPE":"0","PERIOD":"95.591","RA_OF_ASC_NODE":"101.2568"},{"GP_ID":"225953106","BSTAR":"-0.00004030700000","MEAN_ANOMALY":"277.1110","DECAY_DATE":null,"ECCENTRICITY":"0.00012750","EPOCH":"2023-02-18T20:42:53.243136","MEAN_ELEMENT_THEORY":"SGP4","CLASSIFICATION_TYPE":"U","REV_AT_EPOCH":"16192","CENTER_NAME":"EARTH","SITE":"AFETR","COUNTRY_CODE":"US","SEMIMAJOR_AXIS":"6925.384","OBJECT_ID":"2020-019AU","NORAD_CAT_ID":"45402","TLE_LINE2":"2 45402  53.0528 101.2678 0001275  83.0024 277.1110 15.06388340161923","LAUNCH_DATE":"2020-03-18","RCS_SIZE":"LARGE","INCLINATION":"53.0528","FILE":"3808297","MEAN_MOTION_DDOT":"0.0000000000000","ARG_OF_PERICENTER":"83.0024","OBJECT_NAME":"STARLINK-1257","REF_FRAME":"TEME","TIME_SYSTEM":"UTC","APOAPSIS":"548.132","PERIAPSIS":"546.366","MEAN_MOTION":"15.06388340","MEAN_MOTION_DOT":"-0.00000881","ELEMENT_SET_NO":"999","TLE_LINE1":"1 45402U 20019AU  23049.86311624 -.00000881  00000-0 -40307-4 0  9993","OBJECT_TYPE":"PAYLOAD","RA_OF_ASC_NODE":"101.2678","EPHEMERIS_TYPE":"0","PERIOD":"95.593"},{"OBJECT_ID":"2020-019AV","TLE_LINE2":"2 45403  53.0550 101.1967 0001252  84.9369 275.1763 15.06401670161920","LAUNCH_DATE":"2020-03-18","NORAD_CAT_ID":"45403","SITE":"AFETR","COUNTRY_CODE":"US","SEMIMAJOR_AXIS":"6925.343","CLASSIFICATION_TYPE":"U","REV_AT_EPOCH":"16192","CENTER_NAME":"EARTH","MEAN_ELEMENT_THEORY":"SGP4","DECAY_DATE":null,"EPOCH":"2023-02-18T21:05:28.503168","ECCENTRICITY":"0.00012520","GP_ID":"225953127","BSTAR":"0.00042910000000","MEAN_ANOMALY":"275.1763","RA_OF_ASC_NODE":"101.1967","EPHEMERIS_TYPE":"0","PERIOD":"95.592","ELEMENT_SET_NO":"999","TLE_LINE1":"1 45403U 20019AV  23049.87880212  .00006116  00000-0  42910-3 0  9995","OBJECT_TYPE":"PAYLOAD","MEAN_MOTION":"15.06401670","PERIAPSIS":"546.341","MEAN_MOTION_DOT":"0.00006116","APOAPSIS":"548.075","MEAN_MOTION_DDOT":"0.0000000000000","ARG_OF_PERICENTER":"84.9369","OBJECT_NAME":"STARLINK-1259","REF_FRAME":"TEME","TIME_SYSTEM":"UTC","FILE":"3808304","RCS_SIZE":"LARGE","INCLINATION":"53.0550"},{"INCLINATION":"53.0533","RCS_SIZE":"LARGE","FILE":"3807124","REF_FRAME":"TEME","TIME_SYSTEM":"UTC","MEAN_MOTION_DDOT":"0.0000000000000","ARG_OF_PERICENTER":"77.7117","OBJECT_NAME":"STARLINK-1260","APOAPSIS":"548.219","MEAN_MOTION_DOT":"0.00019298","MEAN_MOTION":"15.06392017","PERIAPSIS":"546.257","OBJECT_TYPE":"PAYLOAD","ELEMENT_SET_NO":"999","TLE_LINE1":"1 45404U 20019AW  23049.55812935  .00019298  00000-0  13112-2 0  9994","PERIOD":"95.593","EPHEMERIS_TYPE":"0","RA_OF_ASC_NODE":"102.6426","BSTAR":"0.00131120000000","GP_ID":"225920128","MEAN_ANOMALY":"282.4030","ECCENTRICITY":"0.00014160","EPOCH":"2023-02-18T13:23:42.375840","DECAY_DATE":null,"MEAN_ELEMENT_THEORY":"SGP4","CENTER_NAME":"EARTH","REV_AT_EPOCH":"16178","CLASSIFICATION_TYPE":"U","SEMIMAJOR_AXIS":"6925.373","SITE":"AFETR","COUNTRY_CODE":"US","TLE_LINE2":"2 45404  53.0533 102.6426 0001416  77.7117 282.4030 15.06392017161787","LAUNCH_DATE":"2020-03-18","NORAD_CAT_ID":"45404","OBJECT_ID":"2020-019AW"},{"SEMIMAJOR_AXIS":"6925.323","SITE":"AFETR","COUNTRY_CODE":"US","TLE_LINE2":"2 45405  53.0520 101.2221 0001182  85.9464 274.1660 15.06408306161830","LAUNCH_DATE":"2020-03-18","NORAD_CAT_ID":"45405","OBJECT_ID":"2020-019AX","DECAY_DATE":null,"ECCENTRICITY":"0.00011820","EPOCH":"2023-02-18T21:00:09.044352","GP_ID":"225953610","MEAN_ANOMALY":"274.1660","BSTAR":"-0.00000057497000","CLASSIFICATION_TYPE":"U","REV_AT_EPOCH":"16183","CENTER_NAME":"EARTH","MEAN_ELEMENT_THEORY":"SGP4","MEAN_MOTION":"15.06408306","PERIAPSIS":"546.370","MEAN_MOTION_DOT":"-0.00000290","EPHEMERIS_TYPE":"0","PERIOD":"95.592","RA_OF_ASC_NODE":"101.2221","TLE_LINE1":"1 45405U 20019AX  23049.87510468 -.00000290  00000-0 -57497-6 0  9998","ELEMENT_SET_NO":"999","OBJECT_TYPE":"PAYLOAD","FILE":"3808300","INCLINATION":"53.0520","RCS_SIZE":"LARGE","APOAPSIS":"548.007","REF_FRAME":"TEME","TIME_SYSTEM":"UTC","MEAN_MOTION_DDOT":"0.0000000000000","ARG_OF_PERICENTER":"85.9464","OBJECT_NAME":"STARLINK-1263"},{"BSTAR":"0.00018498000000","GP_ID":"225953612","MEAN_ANOMALY":"265.2229","DECAY_DATE":null,"EPOCH":"2023-02-18T10:01:58.721664","ECCENTRICITY":"0.00012320","MEAN_ELEMENT_THEORY":"SGP4","CLASSIFICATION_TYPE":"U","CENTER_NAME":"EARTH","REV_AT_EPOCH":"16176","SITE":"AFETR","COUNTRY_CODE":"US","SEMIMAJOR_AXIS":"6925.320","OBJECT_ID":"2020-019AY","TLE_LINE2":"2 45406  53.0545 103.2674 0001232  94.8900 265.2229 15.06409409161761","LAUNCH_DATE":"2020-03-18","NORAD_CAT_ID":"45406","RCS_SIZE":"LARGE","INCLINATION":"53.0545","FILE":"3808300","MEAN_MOTION_DDOT":"0.0000000000000","OBJECT_NAME":"STARLINK-1265","ARG_OF_PERICENTER":"94.8900","TIME_SYSTEM":"UTC","REF_FRAME":"TEME","APOAPSIS":"548.038","PERIAPSIS":"546.332","MEAN_MOTION":"15.06409409","MEAN_MOTION_DOT":"0.00002476","TLE_LINE1":"1 45406U 20019AY  23049.41804076  .00002476  00000-0  18498-3 0  9991","ELEMENT_SET_NO":"999","OBJECT_TYPE":"PAYLOAD","RA_OF_ASC_NODE":"103.2674","EPHEMERIS_TYPE":"0","PERIOD":"95.592"},{"OBJECT_TYPE":"PAYLOAD","TLE_LINE1":"1 45407U 20019AZ  23049.49821162  .00016175  00000-0  11029-2 0  9998","ELEMENT_SET_NO":"999","PERIOD":"95.593","EPHEMERIS_TYPE":"0","RA_OF_ASC_NODE":"102.9097","MEAN_MOTION_DOT":"0.00016175","MEAN_MOTION":"15.06379061","PERIAPSIS":"546.321","REF_FRAME":"TEME","TIME_SYSTEM":"UTC","OBJECT_NAME":"STARLINK-1275","MEAN_MOTION_DDOT":"0.0000000000000","ARG_OF_PERICENTER":"90.9832","APOAPSIS":"548.235","INCLINATION":"53.0543","RCS_SIZE":"LARGE","FILE":"3807124","TLE_LINE2":"2 45407  53.0543 102.9097 0001382  90.9832 269.1316 15.06379061161773","NORAD_CAT_ID":"45407","LAUNCH_DATE":"2020-03-18","OBJECT_ID":"2020-019AZ","SEMIMAJOR_AXIS":"6925.413","SITE":"AFETR","COUNTRY_CODE":"US","MEAN_ELEMENT_THEORY":"SGP4","CENTER_NAME":"EARTH","REV_AT_EPOCH":"16177","CLASSIFICATION_TYPE":"U","BSTAR":"0.00110290000000","GP_ID":"225920871","MEAN_ANOMALY":"269.1316","EPOCH":"2023-02-18T11:57:25.483968","ECCENTRICITY":"0.00013820","DECAY_DATE":null}];
